[{"OBJECT_NAME":"NUSAT-41 (C PAYNE-G)","OBJECT_ID":"2023-084N","EPOCH":"2026-03-09T21:55:54.837696","MEAN_MOTION":15.29680045,"ECCENTRICITY":0.00062175,"INCLINATION":97.5351,"RA_OF_ASC_NODE":204.1011,"ARG_OF_PERICENTER":322.2064,"MEAN_ANOMALY":37.8738,"EPHEMERIS_TYPE":0,"CLASSIFICATION_TYPE":"U","NORAD_CAT_ID":56944,"ELEMENT_SET_NO":999,"REV_AT_EPOCH":15260,"BSTAR":0.00059912824,"MEAN_MOTION_DOT":0.0001718,"MEAN_MOTION_DDOT":0},{"OBJECT_NAME":"STARLINK-31552","OBJECT_ID":"2024-060J","EPOCH":"2026-03-09T12:35:35.282688","MEAN_MOTION":15.27574193,"ECCENTRICITY":0.00020189,"INCLINATION":43.0046,"RA_OF_ASC_NODE":261.1466,"ARG_OF_PERICENTER":282.3333,"MEAN_ANOMALY":77.7292,"EPHEMERIS_TYPE":0,"CLASSIFICATION_TYPE":"U","NORAD_CAT_ID":59356,"ELEMENT_SET_NO":999,"REV_AT_EPOCH":11003,"BSTAR":1.2544299e-5,"MEAN_MOTION_DOT":8.3e-7,"MEAN_MOTION_DDOT":0}]
